H1 CPF 01  gfz 2022 12 30 01  8641 terrasarx 
H2 0702601  6201 31698    2022 12 30 00 59 42 2023 01 04 00 00 42   120 1 1  0 0 0
H9
10 0 59944  49662.000000  0    3078477.832   6163677.455     -3883.530
10 0 59944  49782.000000  0    3209499.918   6028526.356    898763.610
10 0 59944  49902.000000  0    3281119.452   5786223.407   1785587.947
10 0 59944  50022.000000  0    3290243.401   5442049.435   2640972.027
10 0 59944  50142.000000  0    3234989.431   5003129.283   3449853.350
10 0 59944  50262.000000  0    3114749.802   4478280.353   4197996.232
10 0 59944  50382.000000  0    2930228.352   3877830.175   4872247.564
10 0 59944  50502.000000  0    2683446.771   3213403.941   5460770.192
10 0 59944  50622.000000  0    2377725.509   2497691.655   5953246.278
10 0 59944  50742.000000  0    2017640.052   1744200.984   6341053.687
10 0 59944  50862.000000  0    1608950.659    966997.366   6617412.281
10 0 59944  50982.000000  0    1158507.602    180438.786   6777495.142
10 0 59944  51102.000000  0     674135.185   -601088.274   6818507.434
10 0 59944  51222.000000  0     164495.581  -1363431.806   6739733.754
10 0 59944  51342.000000  0    -361066.331  -2092930.593   6542549.586
10 0 59944  51462.000000  0    -892694.262  -2776659.146   6230398.167
10 0 59944  51582.000000  0   -1420203.709  -3402657.119   5808732.329
10 0 59944  51702.000000  0   -1933274.288  -3960139.711   5284925.218
10 0 59944  51822.000000  0   -2421651.770  -4439688.048   4668149.765
10 0 59944  51942.000000  0   -2875355.534  -4833415.577   3969224.548
10 0 59944  52062.000000  0   -3284885.261  -5135105.344   3200426.965
10 0 59944  52182.000000  0   -3641420.886  -5340314.248   2375277.453
10 0 59944  52302.000000  0   -3937012.470  -5446442.893   1508300.218
10 0 59944  52422.000000  0   -4164756.467  -5452769.149    614763.036
10 0 59944  52542.000000  0   -4318952.916  -5360443.524   -289598.428
10 0 59944  52662.000000  0   -4395239.801  -5172447.008  -1188866.259
10 0 59944  52782.000000  0   -4390700.254  -4893511.192  -2067230.247
10 0 59944  52902.000000  0   -4303939.661  -4530002.488  -2909274.154
10 0 59944  53022.000000  0   -4135131.190  -4089774.708  -3700251.401
10 0 59944  53142.000000  0   -3886029.267  -3581995.030  -4426344.591
10 0 59944  53262.000000  0   -3559951.840  -3016948.105  -5074904.607
10 0 59944  53382.000000  0   -3161731.972  -2405822.595  -5634665.243
10 0 59944  53502.000000  0   -2697640.813  -1760486.146  -6095929.789
10 0 59944  53622.000000  0   -2175284.096  -1093253.369  -6450729.005
10 0 59944  53742.000000  0   -1603473.232   -416651.031  -6692947.437
10 0 59944  53862.000000  0    -992075.366    256814.090  -6818416.721
10 0 59944  53982.000000  0    -351845.690    914880.528  -6824978.947
10 0 59944  54102.000000  0     305757.776   1545749.736  -6712519.748
10 0 59944  54222.000000  0     968772.998   2138291.655  -6482971.024
10 0 59944  54342.000000  0    1624947.308   2682237.883  -6140283.037
10 0 59944  54462.000000  0    2261959.270   3168358.221  -5690363.289
10 0 59944  54582.000000  0    2867646.781   3588617.656  -5140983.987
10 0 59944  54702.000000  0    3430237.260   3936311.762  -4501659.469
10 0 59944  54822.000000  0    3938577.674   4206179.343  -3783492.861
10 0 59944  54942.000000  0    4382359.193   4394488.260  -2998992.386
10 0 59944  55062.000000  0    4752330.968   4499091.985  -2161858.847
10 0 59944  55182.000000  0    5040497.483   4519455.034  -1286749.172
10 0 59944  55302.000000  0    5240295.787   4456646.485   -389018.130
10 0 59944  55422.000000  0    5346745.036   4313300.862    515555.872
10 0 59944  55542.000000  0    5356566.548   4093548.080   1411054.381
10 0 59944  55662.000000  0    5268271.846   3802912.325   2281707.344
10 0 59944  55782.000000  0    5082213.909   3448182.137   3112180.390
10 0 59944  55902.000000  0    4800599.272   3037255.916   3887852.957
10 0 59944  56022.000000  0    4427462.650   2578966.364   4595081.106
10 0 59944  56142.000000  0    3968606.100   2082889.015   5221438.599
10 0 59944  56262.000000  0    3431502.216   1559141.312   5755936.398
10 0 59944  56382.000000  0    2825164.145   1018173.545   6189211.682
10 0 59944  56502.000000  0    2159988.001    470558.302   6513684.720
10 0 59944  56622.000000  0    1447571.003    -73215.163   6723684.613
10 0 59944  56742.000000  0     700507.030   -602940.771   6815544.794
10 0 59944  56862.000000  0     -67837.965  -1108887.319   6787663.085
10 0 59944  56982.000000  0    -843565.225  -1581976.623   6640527.102
10 0 59944  57102.000000  0   -1612494.022  -2013946.481   6376705.189
10 0 59944  57222.000000  0   -2360418.781  -2397494.412   6000803.239
10 0 59944  57342.000000  0   -3073370.035  -2726401.652   5519391.628
10 0 59944  57462.000000  0   -3737879.359  -2995637.529   4940898.327
10 0 59944  57582.000000  0   -4341238.837  -3201438.851   4275465.340
10 0 59944  57702.000000  0   -4871749.155  -3341363.234   3534774.629
10 0 59944  57822.000000  0   -5318952.482  -3414315.520   2731845.853
10 0 59944  57942.000000  0   -5673846.108  -3420547.547   1880808.326
10 0 59944  58062.000000  0   -5929070.599  -3361630.338    996648.406
10 0 59944  58182.000000  0   -6079066.221  -3240397.661     94938.877
10 0 59944  58302.000000  0   -6120194.615  -3060863.576   -808443.124
10 0 59944  58422.000000  0   -6050822.323  -2828115.792  -1697605.650
10 0 59944  58542.000000  0   -5871361.711  -2548186.540  -2556930.756
10 0 59944  58662.000000  0   -5584270.793  -2227906.116  -3371354.431
10 0 59944  58782.000000  0   -5194012.794  -1874742.859  -4126633.840
10 0 59944  58902.000000  0   -4706976.721  -1496633.461  -4809595.611
10 0 59944  59022.000000  0   -4131362.092  -1101808.134  -5408361.815
10 0 59944  59142.000000  0   -3477029.864   -698614.147  -5912549.175
10 0 59944  59262.000000  0   -2755324.780   -295342.489  -6313438.459
10 0 59944  59382.000000  0   -1978873.410     99938.875  -6604113.578
10 0 59944  59502.000000  0   -1161360.899    479541.546  -6779569.366
10 0 59944  59622.000000  0    -317292.184    836301.163  -6836787.919
10 0 59944  59742.000000  0     538259.717   1163709.077  -6774784.142
10 0 59944  59862.000000  0    1389915.165   1456026.986  -6594622.219
10 0 59944  59982.000000  0    2222259.040   1708386.080  -6299401.071
10 0 59944  60102.000000  0    3020114.712   1916867.645  -5894206.465
10 0 59944  60222.000000  0    3768817.202   2078563.480  -5386031.267
10 0 59944  60342.000000  0    4454481.209   2191616.110  -4783666.312
10 0 59944  60462.000000  0    5064262.320   2255238.418  -4097559.899
10 0 59944  60582.000000  0    5586603.787   2269711.028  -3339645.913
10 0 59944  60702.000000  0    6011463.809   2236357.594  -2523144.539
10 0 59944  60822.000000  0    6330520.214   2157498.501  -1662336.450
10 0 59944  60942.000000  0    6537343.979   2036383.115   -772312.619
10 0 59944  61062.000000  0    6627538.391   1877101.638    131293.477
10 0 59944  61182.000000  0    6598837.566   1684478.286   1032587.911
10 0 59944  61302.000000  0    6451163.068   1463949.667   1915702.014
10 0 59944  61422.000000  0    6186638.871   1221430.226   2765081.564
10 0 59944  61542.000000  0    5809559.127    963167.912   3565769.261
10 0 59944  61662.000000  0    5326312.935    695595.021   4303675.027
10 0 59944  61782.000000  0    4745266.802    425177.276   4965826.671
10 0 59944  61902.000000  0    4076611.211    158266.057   5540598.769
10 0 59944  62022.000000  0    3332171.130    -99044.847   6017915.219
10 0 59944  62142.000000  0    2525187.723   -341052.052   6389419.790
10 0 59944  62262.000000  0    1670077.629   -562563.744   6648616.475
10 0 59944  62382.000000  0     782171.716   -759007.550   6790978.371
10 0 59944  62502.000000  0    -122562.777   -926522.774   6814021.680
10 0 59944  62622.000000  0   -1027809.351  -1062035.118   6717345.144
10 0 59944  62742.000000  0   -1917195.359  -1163313.175   6502635.824
10 0 59944  62862.000000  0   -2774586.278  -1229004.832   6173640.770
10 0 59944  62982.000000  0   -3584377.372  -1258653.616   5736107.351
10 0 59944  63102.000000  0   -4331781.416  -1252695.894   5197690.284
10 0 59944  63222.000000  0   -5003104.757  -1212438.650   4567823.624
10 0 59944  63342.000000  0   -5586006.002  -1140016.880   3857559.745
10 0 59944  63462.000000  0   -6069731.026  -1038331.843   3079377.816
10 0 59944  63582.000000  0   -6445320.200   -910971.596   2246966.472
10 0 59944  63702.000000  0   -6705785.714   -762115.628   1374981.934
10 0 59944  63822.000000  0   -6846250.262   -596425.571    478783.417
10 0 59944  63942.000000  0   -6864042.768   -418924.761   -425845.455
10 0 59944  64062.000000  0   -6758750.299   -234869.560  -1322983.657
10 0 59944  64182.000000  0   -6532223.283    -49615.787  -2196861.687
10 0 59944  64302.000000  0   -6188537.076    131515.393  -3032144.724
10 0 59944  64422.000000  0   -5733909.590    303370.085  -3814208.160
10 0 59944  64542.000000  0   -5176575.358    461088.963  -4529395.355
10 0 59944  64662.000000  0   -4526623.049    600225.499  -5165253.426
10 0 59944  64782.000000  0   -3795800.247    716853.323  -5710743.219
10 0 59944  64902.000000  0   -2997291.223    807659.348  -6156421.531
10 0 59944  65022.000000  0   -2145472.654    870021.258  -6494592.379
10 0 59944  65142.000000  0   -1255653.204    902069.109  -6719428.858
10 0 59944  65262.000000  0    -343799.428    902729.717  -6827062.694
10 0 59944  65382.000000  0     573744.599    871752.721  -6815642.169
10 0 59944  65502.000000  0    1480541.917    809718.352  -6685362.425
10 0 59944  65622.000000  0    2360351.651    718026.909  -6438463.888
10 0 59944  65742.000000  0    3197414.189    598870.164  -6079197.571
10 0 59944  65862.000000  0    3976729.735    455184.950  -5613758.715
10 0 59944  65982.000000  0    4684325.409    290588.664  -5050190.323
10 0 59944  66102.000000  0    5307509.124    109299.217  -4398256.249
99
